{"fetched_at":"2026-07-06T18:35:14.557Z","source":"https://celestrak.org/NORAD/elements/gp.php?GROUP=oneweb&FORMAT=JSON","constellation":"oneweb","records":[{"OBJECT_NAME":"ONEWEB-0701","OBJECT_ID":"2024-188P","EPOCH":"2026-07-06T02:15:41.548896","CLASSIFICATION_TYPE":"U","MEAN_MOTION":13.10373785,"ECCENTRICITY":0.00023435,"INCLINATION":87.8822,"RA_OF_ASC_NODE":32.4985,"ARG_OF_PERICENTER":104.9223,"MEAN_ANOMALY":255.2164,"EPHEMERIS_TYPE":0,"NORAD_CAT_ID":61607,"ELEMENT_SET_NO":999,"REV_AT_EPOCH":8578,"BSTAR":0.0020593863,"MEAN_MOTION_DOT":0.00000732,"MEAN_MOTION_DDOT":0},{"OBJECT_NAME":"ONEWEB-0702","OBJECT_ID":"2024-188Q","EPOCH":"2026-07-06T02:14:57.906528","CLASSIFICATION_TYPE":"U","MEAN_MOTION":13.11416054,"ECCENTRICITY":0.00027557,"INCLINATION":87.8897,"RA_OF_ASC_NODE":17.225,"ARG_OF_PERICENTER":101.4375,"MEAN_ANOMALY":258.7063,"EPHEMERIS_TYPE":0,"NORAD_CAT_ID":61608,"ELEMENT_SET_NO":999,"REV_AT_EPOCH":8696,"BSTAR":-0.0014637727,"MEAN_MOTION_DOT":-0.00000506,"MEAN_MOTION_DDOT":0},{"OBJECT_NAME":"ONEWEB-0704","OBJECT_ID":"2024-188R","EPOCH":"2026-07-06T01:58:33.177216","CLASSIFICATION_TYPE":"U","MEAN_MOTION":13.10374678,"ECCENTRICITY":0.00027772,"INCLINATION":87.8828,"RA_OF_ASC_NODE":32.4909,"ARG_OF_PERICENTER":97.198,"MEAN_ANOMALY":262.9463,"EPHEMERIS_TYPE":0,"NORAD_CAT_ID":61609,"ELEMENT_SET_NO":999,"REV_AT_EPOCH":8576,"BSTAR":0.00047083376,"MEAN_MOTION_DOT":0.00000177,"MEAN_MOTION_DDOT":0},{"OBJECT_NAME":"ONEWEB-0705","OBJECT_ID":"2024-188S","EPOCH":"2026-07-06T02:05:54.704544","CLASSIFICATION_TYPE":"U","MEAN_MOTION":13.10375908,"ECCENTRICITY":0.00028309,"INCLINATION":87.8829,"RA_OF_ASC_NODE":32.4956,"ARG_OF_PERICENTER":81.145,"MEAN_ANOMALY":278.9998,"EPHEMERIS_TYPE":0,"NORAD_CAT_ID":61610,"ELEMENT_SET_NO":999,"REV_AT_EPOCH":7793,"BSTAR":0.0013969577,"MEAN_MOTION_DOT":0.000005,"MEAN_MOTION_DDOT":0},{"OBJECT_NAME":"ONEWEB-0706","OBJECT_ID":"2024-188T","EPOCH":"2026-07-06T01:43:53.669280","CLASSIFICATION_TYPE":"U","MEAN_MOTION":13.10376014,"ECCENTRICITY":0.00024009,"INCLINATION":87.8824,"RA_OF_ASC_NODE":32.5028,"ARG_OF_PERICENTER":90.7508,"MEAN_ANOMALY":269.3895,"EPHEMERIS_TYPE":0,"NORAD_CAT_ID":61611,"ELEMENT_SET_NO":999,"REV_AT_EPOCH":8585,"BSTAR":-0.0013861423,"MEAN_MOTION_DOT":-0.00000471,"MEAN_MOTION_DDOT":0},{"OBJECT_NAME":"ONEWEB-0707","OBJECT_ID":"2024-188U","EPOCH":"2026-07-06T01:53:39.702336","CLASSIFICATION_TYPE":"U","MEAN_MOTION":13.10375281,"ECCENTRICITY":0.00023924,"INCLINATION":87.8829,"RA_OF_ASC_NODE":32.4963,"ARG_OF_PERICENTER":90.7055,"MEAN_ANOMALY":269.4347,"EPHEMERIS_TYPE":0,"NORAD_CAT_ID":61612,"ELEMENT_SET_NO":999,"REV_AT_EPOCH":8579,"BSTAR":0.000064570038,"MEAN_MOTION_DOT":3.5e-7,"MEAN_MOTION_DDOT":0},{"OBJECT_NAME":"ONEWEB-0708","OBJECT_ID":"2024-188V","EPOCH":"2026-07-06T02:20:34.572768","CLASSIFICATION_TYPE":"U","MEAN_MOTION":13.10377901,"ECCENTRICITY":0.00022119,"INCLINATION":87.8818,"RA_OF_ASC_NODE":32.5094,"ARG_OF_PERICENTER":74.0464,"MEAN_ANOMALY":286.0907,"EPHEMERIS_TYPE":0,"NORAD_CAT_ID":61613,"ELEMENT_SET_NO":999,"REV_AT_EPOCH":8577,"BSTAR":0.002003927,"MEAN_MOTION_DOT":0.00000712,"MEAN_MOTION_DDOT":0}]}
